[{"OBJECT_NAME":"LEMUR-2-ALISIA","OBJECT_ID":"2025-009DB","EPOCH":"2026-03-09T17:42:17.671392","MEAN_MOTION":15.01147598,"ECCENTRICITY":0.00065821,"INCLINATION":97.7037,"RA_OF_ASC_NODE":151.6973,"ARG_OF_PERICENTER":159.9869,"MEAN_ANOMALY":200.1615,"EPHEMERIS_TYPE":0,"CLASSIFICATION_TYPE":"U","NORAD_CAT_ID":62706,"ELEMENT_SET_NO":999,"REV_AT_EPOCH":8523,"BSTAR":0.00072005311,"MEAN_MOTION_DOT":9.177e-5,"MEAN_MOTION_DDOT":0},{"OBJECT_NAME":"STARLINK-34583","OBJECT_ID":"2025-142T","EPOCH":"2026-03-09T22:26:53.700864","MEAN_MOTION":14.98334024,"ECCENTRICITY":0.00022736,"INCLINATION":70.0033,"RA_OF_ASC_NODE":313.961,"ARG_OF_PERICENTER":270.4759,"MEAN_ANOMALY":89.614,"EPHEMERIS_TYPE":0,"CLASSIFICATION_TYPE":"U","NORAD_CAT_ID":64713,"ELEMENT_SET_NO":999,"REV_AT_EPOCH":3949,"BSTAR":0.00037171575,"MEAN_MOTION_DOT":4.345e-5,"MEAN_MOTION_DDOT":0}]
